NORAD_CAT_ID,OBJECT_NAME,OBJECT_TYPE,EPOCH,MEAN_MOTION,ECCENTRICITY,INCLINATION,RA_OF_ASC_NODE,ARG_OF_PERICENTER,MEAN_ANOMALY,BSTAR,MEAN_MOTION_DOT,MEAN_MOTION_DDOT,TLE_LINE0,TLE_LINE1,TLE_LINE2,SEMIMAJOR_AXIS,PERIOD,APOGEE,PERIGEE,DECAYED
53181.0,STARLINK-4273,PAYLOAD,2022-11-19 22:00:00,15.73228985,0.0008846,53.2123,146.599,286.1399,109.4991,-0.00013204,-0.00019191,0.0,0 STARLINK-4273,1 53181U 22083BB  22323.91667824 -.00019191  00000-0 -13204-3 0  9994,2 53181  53.2123 146.5990 0008846 286.1399 109.4991 15.73228985  1301,6727.813,91.531,355.629,343.726,0.0
53181.0,STARLINK-4273,PAYLOAD,2022-11-20 06:00:00,15.73234855,0.0008857999999999,53.212,144.9475,285.0277,199.5626,-0.00046839,-0.00066123,0.0,0 STARLINK-4273,1 53181U 22083BB  22324.25001157 -.00066123  00000-0 -46839-3 0  9990,2 53181  53.2120 144.9475 0008858 285.0277 199.5626 15.73234855 20437,6727.795999999999,91.531,355.62,343.701,0.0
53181.0,STARLINK-4273,PAYLOAD,2022-11-20 14:00:01,15.73212524,0.0008771,53.2119,143.298,284.3353,289.184,-0.00024941,-0.00035594,0.0,0 STARLINK-4273,1 53181U 22083BB  22324.58334491 -.00035594  00000-0 -24941-3 0  9994,2 53181  53.2119 143.2980 0008771 284.3353 289.1840 15.73212524  1307,6727.859,91.532,355.625,343.8230000000001,0.0
53181.0,STARLINK-4273,PAYLOAD,2022-11-20 22:00:00,15.73133916,0.0008886,53.2116,141.6501,286.6148,15.8476,0.00046682,0.00065357,0.0,0 STARLINK-4273,1 53181U 22083BB  22324.91667824  .00065357  00000-0  46682-3 0  9994,2 53181  53.2116 141.6501 0008886 286.6148  15.8476 15.73133916 20531,6728.084,91.537,355.927,343.97,0.0
53181.0,STARLINK-4273,PAYLOAD,2022-11-21 14:00:01,15.73185861,0.0008835,53.2118,138.3488,286.3886,193.8856,0.0001311,0.00017837,0.0,0 STARLINK-4273,1 53181U 22083BB  22325.58334491  .00017837  00000-0  13110-3 0  9999,2 53181  53.2118 138.3488 0008835 286.3886 193.8856 15.73185861 20647,6727.935,91.534,355.745,343.856,0.0
53181.0,STARLINK-4273,PAYLOAD,2022-11-22 00:00:00,15.73217493,0.0009036,53.2114,136.2881,289.2555,32.1671,0.00023951,0.0003322,0.0,0 STARLINK-4273,1 53181U 22083BB  22326.00001157  .00033220  00000-0  23951-3 0  9995,2 53181  53.2114 136.2881 0009036 289.2555  32.1671 15.73217493  1305,6727.845,91.532,355.79,343.631,0.0
53181.0,STARLINK-4273,PAYLOAD,2022-11-22 14:00:01,15.73247536,0.0008847999999999,53.2115,133.3998,287.9796,99.1745,-0.00063849,-0.0008971,0.0,0 STARLINK-4273,1 53181U 22083BB  22326.58335648 -.00089710  00000-0 -63849-3 0  9990,2 53181  53.2115 133.3998 0008848 287.9796  99.1745 15.73247536 20795,6727.76,91.53,355.577,343.672,0.0
53181.0,STARLINK-4273,PAYLOAD,2022-11-22 22:00:00,15.73179372,0.0008948,53.2112,131.7518,289.5781,186.4567,0.0001142,0.00015448,0.0,0 STARLINK-4273,1 53181U 22083BB  22326.91667824  .00015448  00000-0  11420-3 0  9994,2 53181  53.2112 131.7518 0008948 289.5781 186.4567 15.73179372  1305,6727.954000000002,91.534,355.839,343.7990000000001,0.0
53181.0,STARLINK-4273,PAYLOAD,2022-11-23 06:00:00,15.73144811,0.0008949,53.2114,130.1,288.6283,276.332,0.00045187,0.0006326,0.0,0 STARLINK-4273,1 53181U 22083BB  22327.25001157  .00063260  00000-0  45187-3 0  9995,2 53181  53.2114 130.1000 0008949 288.6283 276.3320 15.73144811 20907,6728.053000000001,91.536,355.93800000000016,343.897,0.0
53181.0,STARLINK-4273,PAYLOAD,2022-11-23 14:00:01,15.73205236,0.0008881,53.2117,128.4508,290.2369,3.6033,0.00010289,0.00013868,0.0,0 STARLINK-4273,1 53181U 22083BB  22327.58334491  .00013868  00000-0  10289-3 0  9995,2 53181  53.2117 128.4508 0008881 290.2369   3.6033 15.73205236  1306,6727.88,91.533,355.72,343.77,0.0
53181.0,STARLINK-4273,PAYLOAD,2022-11-24 00:00:00,15.73264241,0.0008988,53.2115,126.3896,292.6018,202.4095,-0.00056368,-0.0007943,0.0,0 STARLINK-4273,1 53181U 22083BB  22328.00001157 -.00079430  00000-0 -56368-3 0  9990,2 53181  53.2115 126.3896 0008988 292.6018 202.4095 15.73264241  1304,6727.712,91.529,355.624,343.53,0.0
53181.0,STARLINK-4273,PAYLOAD,2022-11-24 06:00:02,15.73173095,0.0008972999999999,53.2118,125.1508,291.2406,180.5854,0.00052565,0.00073875,0.0,0 STARLINK-4273,1 53181U 22083BB  22328.25002315  .00073875  00000-0  52565-3 0  9994,2 53181  53.2118 125.1508 0008973 291.2406 180.5854 15.73173095 21064,6727.972,91.535,355.874,343.8,0.0
53181.0,STARLINK-4273,PAYLOAD,2022-11-24 14:00:01,15.73242696,0.0008885,53.2118,123.502,292.2181,268.4631,-0.00060169,-0.0008461,0.0,0 STARLINK-4273,1 53181U 22083BB  22328.58334491 -.00084610  00000-0 -60169-3 0  9993,2 53181  53.2118 123.5020 0008885 292.2181 268.4631 15.73242696 21117,6727.773,91.531,355.616,343.661,0.0
53181.0,STARLINK-4273,PAYLOAD,2022-11-24 22:00:00,15.73167245,0.0009065,53.2115,121.8537,293.8376,355.7877,0.00061403,0.00086513,0.0,0 STARLINK-4273,1 53181U 22083BB  22328.91667824  .00086513  00000-0  61403-3 0  9993,2 53181  53.2115 121.8537 0009065 293.8376 355.7877 15.73167245 21165,6727.989000000001,91.535,355.952,343.755,0.0
53181.0,STARLINK-4273,PAYLOAD,2022-11-25 06:00:00,15.73209944,0.0008943,53.2118,120.2019,292.7855,85.7726,-0.00010792,-0.00015796,0.0,0 STARLINK-4273,1 53181U 22083BB  22329.25001157 -.00015796  00000-0 -10792-3 0  9994,2 53181  53.2118 120.2019 0008943 292.7855  85.7726 15.73209944 21212,6727.8669999999975,91.533,355.749,343.715,0.0
53181.0,STARLINK-4273,PAYLOAD,2022-11-25 14:00:01,15.73213159,0.0008914,53.2122,118.5532,294.2275,173.2642,0.00016536,0.00022705,0.0,0 STARLINK-4273,1 53181U 22083BB  22329.58334491  .00022705  00000-0  16536-3 0  9998,2 53181  53.2122 118.5532 0008914 294.2275 173.2642 15.73213159  1309,6727.858,91.532,355.72,343.725,0.0
53181.0,STARLINK-4273,PAYLOAD,2022-11-25 22:00:00,15.73387965,0.0008767,53.214,116.9001,292.2479,264.1732,-0.0027658,-0.0037621,0.0,0 STARLINK-4273,1 53181U 22083BB  22329.91667824 -.00376210  00000-0 -27658-2 0  9995,2 53181  53.2140 116.9001 0008767 292.2479 264.1732 15.73387965 21323,6727.359,91.522,355.122,343.326,0.0
53181.0,STARLINK-4273,PAYLOAD,2022-11-26 00:00:00,15.73487642,0.0008866,53.2143,116.4857,290.5569,18.0978,-0.0055396,-0.00726341,0.0,0 STARLINK-4273,1 53181U 22083BB  22330.00001157 -.00726341  00000-0 -55396-2 0  9992,2 53181  53.2143 116.4857 0008866 290.5569  18.0978 15.73487642  1308,6727.075,91.516,354.904,342.976,0.0
53181.0,STARLINK-4273,PAYLOAD,2022-11-26 06:00:00,15.7297405,0.0008503,53.2162,115.2432,284.9606,0.5183,-0.0030697,-0.00408521,0.0,0 STARLINK-4273,1 53181U 22083BB  22330.25001157 -.00408521  00000-0 -30697-2 0  9993,2 53181  53.2162 115.2432 0008503 284.9606   0.5183 15.72974050 21378,6728.5390000000025,91.546,356.126,344.68300000000005,0.0
53181.0,STARLINK-4273,PAYLOAD,2022-11-26 14:00:01,15.72692214,0.0006946,53.2169,113.5934,272.6825,101.325,-0.0085042,-0.01054247,0.0,0 STARLINK-4273,1 53181U 22083BB  22330.58334491 -.01054247  00000-0 -85042-2 0  9996,2 53181  53.2169 113.5934 0006946 272.6825 101.3250 15.72692214 21429,6729.343000000003,91.563,355.88199999999995,346.534,0.0
53181.0,STARLINK-4273,PAYLOAD,2022-11-26 22:00:00,15.71880599,0.0005899,53.216,111.9473,272.1796,189.7118,-0.008933,-0.01067264,0.0,0 STARLINK-4273,1 53181U 22083BB  22330.91667824 -.01067264  00000-0 -89330-2 0  9999,2 53181  53.2160 111.9473 0005899 272.1796 189.7118 15.71880599  1300,6731.659000000002,91.61,357.495,349.55300000000005,0.0
53181.0,STARLINK-4273,PAYLOAD,2022-11-27 06:00:00,15.71118572,0.0003202,53.2172,110.2975,269.319,279.4488,-0.0098376,-0.01128624,0.0,0 STARLINK-4273,1 53181U 22083BB  22331.25001157 -.01128624  00000-0 -98376-2 0  9996,2 53181  53.2172 110.2975 0003202 269.3190 279.4488 15.71118572 21533,6733.8359999999975,91.654,357.857,353.545,0.0
53181.0,STARLINK-4273,PAYLOAD,2022-11-27 14:00:01,15.70314272,0.0005859,53.2167,108.6574,268.6762,6.0061,-0.010211,-0.01133526,0.0,0 STARLINK-4273,1 53181U 22083BB  22331.58334491 -.01133526  00000-0 -10211-1 0  9990,2 53181  53.2167 108.6574 0005859 268.6762   6.0061 15.70314272  1308,6736.135,91.701,361.947,354.05300000000005,0.0
53181.0,STARLINK-4273,PAYLOAD,2022-11-28 00:00:00,15.69309878,0.0001478,53.2166,106.6048,311.4461,159.2662,-0.010941,-0.01178074,0.0,0 STARLINK-4273,1 53181U 22083BB  22332.00001157 -.01178074  00000-0 -10941-1 0  9995,2 53181  53.2166 106.6048 0001478 311.4461 159.2662 15.69309878  1309,6739.009,91.76,361.87,359.87800000000016,0.0
53181.0,STARLINK-4273,PAYLOAD,2022-11-28 06:00:00,15.68676573,0.0001239,53.2174,105.3731,4.3806,79.2277,-0.010871,-0.0114354,0.0,0 STARLINK-4273,1 53181U 22083BB  22332.25001157 -.01143540  00000-0 -10871-1 0  9994,2 53181  53.2174 105.3731 0001239   4.3806  79.2277 15.68676573 21694,6740.823,91.797,363.523,361.852,0.0
53181.0,STARLINK-4273,PAYLOAD,2022-11-28 22:00:01,15.67045527,0.0001212,53.216,102.1029,57.4807,191.1963,-0.011547,-0.01136478,0.0,0 STARLINK-4273,1 53181U 22083BB  22332.91668981 -.01136478  00000-0 -11547-1 0  9994,2 53181  53.2160 102.1029 0001212  57.4807 191.1963 15.67045527 21790,6745.499,91.893,368.182,366.547,0.0
53181.0,STARLINK-4273,PAYLOAD,2022-11-29 14:00:01,15.65435978,0.000114,53.2166,98.8372,60.0044,349.7571,-0.012611,-0.01160173,0.0,0 STARLINK-4273,1 53181U 22083BB  22333.58335648 -.01160173  00000-0 -12611-1 0  9991,2 53181  53.2166  98.8372 0001140  60.0044 349.7571 15.65435978 21899,6750.121999999999,91.987,372.757,371.218,0.0
53181.0,STARLINK-4273,PAYLOAD,2022-11-29 22:00:00,15.64614234,0.0001378,53.216,97.2083,52.4724,76.3068,-0.012889,-0.01148544,0.0,0 STARLINK-4273,1 53181U 22083BB  22333.91667824 -.01148544  00000-0 -12889-1 0  9997,2 53181  53.2160  97.2083 0001378  52.4724  76.3068 15.64614234  1309,6752.485,92.035,375.281,373.42,0.0
53181.0,STARLINK-4273,PAYLOAD,2022-11-30 14:00:01,15.62975854,0.0001239,53.2175,93.9538,61.3979,222.6782,-0.013556,-0.01133311,0.0,0 STARLINK-4273,1 53181U 22083BB  22334.58335648 -.01133311  00000-0 -13556-1 0  9995,2 53181  53.2175  93.9538 0001239  61.3979 222.6782 15.62975854 22050,6757.203,92.132,379.906,378.231,0.0
